ONEWEB-0474             
1 51654U 22012AJ  24016.93459632 -.00000248  00000+0 -74539-3 0  9998
2 51654  87.8888 211.5143 0001631 100.1307 260.0005 13.10371676 93752
ONEWEB-0475             
1 51655U 22012AK  24016.92020373  .00000078  00000+0  16871-3 0  9998
2 51655  87.9215 181.3174 0001697 109.5170 250.6144 13.17651967 97506
ONEWEB-0490             
1 54113U 22138A   24017.30945449  .00000098  00000+0  21242-3 0  9992
2 54113  87.9205 120.5221 0001886 106.5483 253.5857 13.19725468 61389
ONEWEB-0492             
1 54114U 22138B   24016.80400180 -.00000150  00000+0 -40670-3 0  9992
2 54114  87.9208 120.6170 0002050 105.7539 254.3820 13.19726328 60456
ONEWEB-0495             
1 54115U 22138C   24016.78189447  .00000055  00000+0  10559-3 0  9995
2 54115  87.9209 120.6329 0002101 114.7313 245.4039 13.19726546 60434
ONEWEB-0497             
1 54116U 22138D   24016.79453220  .00000076  00000+0  15746-3 0  9996
2 54116  87.9203 120.6252 0001861 107.4239 252.7098 13.19725616 60424
ONEWEB-0499             
1 54117U 22138E   24016.77715088  .00000063  00000+0  12452-3 0  9995
2 54117  87.9209 120.6231 0001539 126.2609 233.8666 13.19726955 60439
ONEWEB-0500             
1 54118U 22138F   24016.78032813  .00000116  00000+0  25768-3 0  9998
2 54118  87.9206 120.6233 0001821 104.4941 255.6394 13.19726887 60445
